[{"OBJECT_NAME":"STARLINK-30462","OBJECT_ID":"2023-146M","EPOCH":"2026-03-09T22:00:01.999584","MEAN_MOTION":15.06201719,"ECCENTRICITY":0.00020644,"INCLINATION":43.0005,"RA_OF_ASC_NODE":311.9584,"ARG_OF_PERICENTER":259.8458,"MEAN_ANOMALY":49.1349,"EPHEMERIS_TYPE":0,"CLASSIFICATION_TYPE":"U","NORAD_CAT_ID":57902,"ELEMENT_SET_NO":999,"REV_AT_EPOCH":577,"BSTAR":0.10381501,"MEAN_MOTION_DOT":0.01694699,"MEAN_MOTION_DDOT":0},{"OBJECT_NAME":"PEGASUS DEB","OBJECT_ID":"1994-029LN","EPOCH":"2026-03-09T13:32:28.639104","MEAN_MOTION":14.7969053,"ECCENTRICITY":0.014325,"INCLINATION":81.5077,"RA_OF_ASC_NODE":265.5669,"ARG_OF_PERICENTER":165.8227,"MEAN_ANOMALY":194.7072,"EPHEMERIS_TYPE":0,"CLASSIFICATION_TYPE":"U","NORAD_CAT_ID":24239,"ELEMENT_SET_NO":999,"REV_AT_EPOCH":56152,"BSTAR":0.0015079,"MEAN_MOTION_DOT":0.00013522,"MEAN_MOTION_DDOT":0}]
